[{"OBJECT_NAME":"SNAP-3 EDDIE","OBJECT_ID":"2015-058J","EPOCH":"2026-03-09T10:37:04.410624","MEAN_MOTION":15.44637695,"ECCENTRICITY":0.00384043,"INCLINATION":64.7481,"RA_OF_ASC_NODE":75.5572,"ARG_OF_PERICENTER":73.6673,"MEAN_ANOMALY":286.8683,"EPHEMERIS_TYPE":0,"CLASSIFICATION_TYPE":"U","NORAD_CAT_ID":40972,"ELEMENT_SET_NO":999,"REV_AT_EPOCH":10354,"BSTAR":0.0012991754,"MEAN_MOTION_DOT":0.00062838,"MEAN_MOTION_DDOT":0},{"OBJECT_NAME":"STARLINK-1480","OBJECT_ID":"2020-038M","EPOCH":"2026-03-09T17:32:00.403008","MEAN_MOTION":15.47630667,"ECCENTRICITY":0.00068768,"INCLINATION":53.0516,"RA_OF_ASC_NODE":217.0565,"ARG_OF_PERICENTER":179.8885,"MEAN_ANOMALY":180.2125,"EPHEMERIS_TYPE":0,"CLASSIFICATION_TYPE":"U","NORAD_CAT_ID":45741,"ELEMENT_SET_NO":999,"REV_AT_EPOCH":31648,"BSTAR":0.00053203068,"MEAN_MOTION_DOT":0.00027583,"MEAN_MOTION_DDOT":0}]
